[{"OBJECT_NAME":"IRIDIUM 113","OBJECT_ID":"2017-039A","EPOCH":"2026-03-09T21:21:34.497504","MEAN_MOTION":14.34222091,"ECCENTRICITY":0.00022411,"INCLINATION":86.4028,"RA_OF_ASC_NODE":3.6669,"ARG_OF_PERICENTER":81.1883,"MEAN_ANOMALY":278.9567,"EPHEMERIS_TYPE":0,"CLASSIFICATION_TYPE":"U","NORAD_CAT_ID":42803,"ELEMENT_SET_NO":999,"REV_AT_EPOCH":45695,"BSTAR":0.00014821747,"MEAN_MOTION_DOT":4.35e-6,"MEAN_MOTION_DDOT":0},{"OBJECT_NAME":"NOAA 16 DEB","OBJECT_ID":"2000-055LH","EPOCH":"2026-03-09T13:28:02.582400","MEAN_MOTION":14.37274555,"ECCENTRICITY":0.0014995,"INCLINATION":98.8202,"RA_OF_ASC_NODE":188.1325,"ARG_OF_PERICENTER":96.3103,"MEAN_ANOMALY":263.979,"EPHEMERIS_TYPE":0,"CLASSIFICATION_TYPE":"U","NORAD_CAT_ID":41428,"ELEMENT_SET_NO":999,"REV_AT_EPOCH":52001,"BSTAR":0.0022287,"MEAN_MOTION_DOT":6.611e-5,"MEAN_MOTION_DDOT":0}]
